EVENT_NAME: 202302060117
EVENT_ID: 12439
EVENT_DATE_YYYYMMDD: 2023/02/06
EVENT_TIME_HHMMSS: 01:17:34.00000
EVENT_LATITUDE_DEGREE: 37.236
EVENT_LONGITUDE_DEGREE: 37.057
EVENT_DEPTH_KM: 7.0
HYPOCENTER_REFERENCE: AFAD
MAGNITUDE_W: 7.4
MAGNITUDE_W_REFERENCE: AFAD
MAGNITUDE_L: 
MAGNITUDE_L_REFERENCE: 
FOCAL_MECHANISM: 
NETWORK: TK
STATION_CODE: 4615
STATION_NAME: 
STATION_LATITUDE_DEGREE: 37.38676
STATION_LONGITUDE_DEGREE: 37.13803
STATION_ELEVATION_M: 581.0
LOCATION: Kahramanmaras_Pazarcık_Turkiye
SENSOR_DEPTH_M: 
VS30_M/S: 484
SITE_CLASSIFICATION_EC8: B
MORPHOLOGIC_CLASSIFICATION: 
EPICENTRAL_DISTANCE_KM: 18.23
EARTHQUAKE_BACKAZIMUTH_DEGREE: 
DATE_TIME_FIRST_SAMPLE_YYYYMMDD_HHMMSS: 2023/02/06 01:17:07.365441
DATE_TIME_FIRST_SAMPLE_PRECISION: millisecond
SAMPLING_INTERVAL_S: 0.01
NDATA: 10501
DURATION_S: 
STREAM: HNN
UNITS: cm/s^2
INSTRUMENT: sensor = GMS+/GEOSIG | digitizer = 
INSTRUMENT_ANALOG/DIGITAL: 
INSTRUMENTAL_FREQUENCY_HZ: 
INSTRUMENTAL_DAMPING: 
FULL_SCALE_G: 
N_BIT_DIGITAL_CONVERTER: 
PGA_CM/S^2: 583.644
TIME_PGA_S: 
BASELINE_CORRECTION: BASELINE REMOVED
FILTER_TYPE: BUTTERWORTH
FILTER_ORDER: 
LOW_CUT_FREQUENCY_HZ: 
HIGH_CUT_FREQUENCY_HZ: 
LATE/NORMAL_TRIGGERED: 
DATABASE_VERSION: 
HEADER_FORMAT: DYNA 1.2
DATA_TYPE: Acceleration
PROCESSING: Manual Paolucci et al., 2011
DATA_TIMESTAMP_YYYYMMDD_HHMMSS: 
DATA_LICENSE: U (unknown license)
DATA_CITATION: Turkish Accelerometric Archive v 1.0 - Disaster And Emergency Management Presidency, Earthquake Department
DATA_CREATOR: AFAD
ORIGINAL_DATA_MEDIATOR_CITATION: : AFAD - Disaster And Emergency Management Presidency
ORIGINAL_DATA_MEDIATOR: AFAD PROCESS SERVICE
ORIGINAL_DATA_CREATOR_CITATION: AFAD PROCESS SERVICE
ORIGINAL_DATA_CREATOR: network: TK
USER1: GuestUser
USER2: 
USER3: 
USER4: 
USER5: 
[...]
-0.019118
-0.017023
-0.017006
-0.016730
-0.018532
-0.018515
-0.016940
-0.016144
-0.014828
-0.016110
-0.017912
-0.018415
-0.016840
-0.016044
-0.018106
-0.018089
-0.018592
-0.018575
-0.015961
-0.015165
-0.016707
-0.017729
-0.018492
-0.017956
-0.017160
-0.016364
-0.016607
-0.018669
-0.017353
-0.015518
-0.015502
-0.015225
-0.015468
-0.015971
-0.018293
-0.017497
-0.017740
-0.017723
-0.017447
-0.018989
-0.018712
-0.017397
-0.015302
-0.015286
-0.016048
-0.015772
-0.016535
-0.015998
-0.015982
-0.014926
-0.016208
-0.020088
-0.019552
-0.016418
-0.015362
-0.016385
-0.016888
-0.016611
-0.016855
-0.016059
-0.016821
-0.016545
-0.015229
-0.015992
-0.016495
-0.016219
-0.015942
-0.015926
-0.015649
-0.015892
-0.017434
-0.017418
-0.016102
-0.017125
-0.018407
-0.017871
-0.017335
-0.016799
-0.016262
-0.016246
-0.015190
-0.014394
-0.015157
-0.015400
-0.016942
-0.017185
-0.016909
-0.017931
-0.018434
-0.018417
-0.017621
-0.017085
-0.016289
-0.016273
-0.016516
-0.015200
-0.014405
-0.015687
-0.015670
-0.015394
-0.017715
-0.017439
-0.015344
-0.017146
-0.016350
-0.014774
-0.016836
-0.016560
-0.014984
-0.015487
-0.017029
-0.015454
-0.013879
-0.016720
-0.015924
-0.015388
-0.017189
-0.015614
-0.013260
-0.013762
-0.015304
-0.015807
-0.016050
-0.015774
-0.016277
-0.017299
-0.015984
-0.015967
-0.016211
-0.014895
-0.014359
-0.013823
-0.015105
-0.014569
-0.013773
-0.015315
-0.015038
-0.015282
-0.016044
-0.014729
-0.013933
-0.015475
-0.016497
-0.016481
-0.016464
-0.014889
-0.014353
-0.014336
-0.016398
-0.016641
-0.014286
-0.014789
-0.013993
-0.012158
-0.014479
-0.015762
-0.015485
-0.017027
-0.016491
-0.014137
-0.014380
-0.016181
-0.015645
-0.014070
-0.014053
-0.012998
-0.014020
-0.016601
-0.015286
-0.015269
-0.015512
-0.016015
-0.016258
-0.014683
-0.014407
-0.014130
-0.014114
-0.014876
-0.014860
-0.014064
-0.013788
-0.014290
-0.014014
-0.014257
-0.014241
-0.013704
-0.013428
-0.014970
-0.014953
-0.014157
-0.015699
-0.015163
-0.014627
-0.014870
-0.012775
-0.014058
-0.015080
-0.012466
-0.012449
-0.014251
-0.015014
-0.014737
-0.014461
-0.015224
-0.014428
-0.014931
-0.015174
-0.013858
-0.014621
-0.015384
-0.014328
-0.014052
-0.012736
-0.012719
-0.015041
-0.013206
-0.013709
-0.014731
-0.012896
-0.013139
-0.014162
-0.013885
-0.014128
-0.015411
-0.014355
-0.013559
-0.014581
-0.014825
-0.012730
-0.013752
-0.015814
-0.012420
-0.011884
-0.013426
-0.012370
-0.013133
-0.013636
-0.013619
-0.012564
-0.013067
-0.013050
-0.013033
-0.014575
-0.013260
-0.014802
-0.016863
-0.013729
-0.014492
-0.014216
-0.011601
-0.013143
-0.012867
-0.011552
-0.013353
-0.014636
-0.014879
-0.014862
-0.014586
-0.015348
-0.014552
-0.012458
-0.012441
-0.014243
-0.013447
-0.012131
-0.013933
-0.013657
-0.012601
-0.013883
-0.014126
-0.014629
-0.015392
-0.014596
-0.014320
-0.013524
-0.013247
-0.012971
-0.011396
-0.012158
-0.012402
-0.013164
-0.013927
-0.012871
-0.012855
-0.012059
-0.014120
-0.013584
-0.010970
-0.014070
-0.014054
-0.013258
-0.015060
-0.014523
-0.013468
-0.012412
-0.013175
-0.011859
-0.011323
-0.013385
-0.011809
-0.012572
-0.013335
-0.012279
-0.013042
-0.014064
-0.014048
-0.012472
-0.011676
-0.012439
-0.013981
-0.012406
-0.012129
-0.012892
-0.012096
-0.014677
-0.014401
-0.011787
-0.011250
-0.012792
-0.012776
-0.011980
-0.013782
-0.012986
-0.010631
-0.013212
-0.013196
-0.011101
-0.012383
-0.012626
-0.011311
-0.013372
-0.014135
-0.012040
-0.013582
-0.013046
-0.011731
-0.013013
-0.011957
-0.011681
-0.011924
-0.011128
-0.012410
-0.012134
-0.010818
-0.010282
-0.011824
-0.013106
-0.010752
-0.012294
-0.012537
-0.012260
-0.011724
-0.010409
-0.012730
-0.012194
-0.012177
-0.012421
-0.011625
-0.011868
-0.011072
-0.012874
-0.012597
-0.009723
-0.010486
-0.011508
-0.011232
-0.012254
-0.012497
-0.011961
-0.012464
-0.012188
-0.011652
-0.010856
-0.008241
-0.010043
-0.011325
-0.010010
-0.011552
-0.011535
-0.012558
-0.013061
-0.010706
-0.010949
-0.010933
-0.010916
-0.012978
-0.011922
-0.010866
-0.011889
-0.012651
-0.013674
-0.012618
-0.010783
-0.009468
-0.009451
-0.010733
-0.010457
-0.010180
-0.010424
-0.011186
-0.011170
-0.011672
-0.011396
-0.009821
-0.010584
-0.011086
-0.011849
-0.012092
-0.012595
-0.013098
-0.012302
-0.011506
-0.010970
-0.010694
-0.009638
-0.009102
-0.009085
-0.009848
-0.010870
-0.011633
-0.012655
-0.011340
-0.010804
-0.010787
-0.011290
-0.010754
-0.012556
-0.013578
-0.009665
-0.011727
-0.011970
-0.009875
-0.012456
-0.011400
-0.010085
-0.009549
-0.008753
-0.008996
-0.010018
-0.011560
-0.011284
-0.012047
-0.011251
-0.009935
-0.011737
-0.010422
-0.009885
-0.009349
-0.009852
-0.011134
-0.009299
-0.012400
-0.012124
-0.010029
-0.011051
-0.008956
-0.009979
-0.011521
-0.009426
-0.010449
-0.011211
-0.009116
-0.008840
-0.010902
-0.010106
-0.009310
-0.011371
-0.011095
-0.009779
-0.008984
-0.009486
-0.009730
-0.009713
-0.010476
-0.010199
-0.008884
-0.008607
-0.009370
-0.009873
-0.010895
-0.011918
-0.010343
-0.010326
-0.010050
-0.008474
-0.010276
-0.009740
-0.007645
-0.007629
-0.008651
-0.010453
-0.009917
-0.009121
-0.010403
-0.009867
-0.008811
-0.010093
-0.009557
-0.008761
-0.011862
-0.010546
-0.009491
-0.010773
-0.008938
-0.009960
-0.008645
-0.007329
-0.010430
-0.009894
-0.009358
-0.009861
-0.009065
-0.009568
-0.008772
-0.007196
-0.007699
-0.008722
-0.007147
-0.009208
-0.010490
-0.008655
-0.011496
-0.010181
-0.008086
-0.009628
-0.009092
-0.009335
-0.010357
-0.009042
-0.006947
-0.009788
-0.011070
-0.008975
-0.009998
-0.008682
-0.007107
-0.008389
-0.009412
-0.008616
-0.008339
-0.010141
-0.008306
-0.008290
-0.010351
-0.010075
-0.010058
-0.010041
-0.010285
-0.008450
-0.009212
-0.010495
-0.008919
-0.009162
-0.008886
-0.008090
-0.007554
-0.007797
-0.009079
-0.009063
-0.008267
-0.008510
-0.009792
-0.009256
-0.007941
-0.008963
-0.008946
-0.007891
-0.007614
-0.008377
-0.009399
-0.009123
-0.008327
-0.007012
-0.008294
-0.009836
-0.007221
-0.008763
-0.009007
-0.006912
-0.009233
-0.007918
-0.007122
-0.006845
-0.006049
-0.008111
-0.008614
-0.008337
-0.008581
-0.010382
-0.009327
-0.005673
-0.006696
-0.007458
-0.008481
-0.009763
-0.008448
-0.007911
-0.008674
-0.009437
-0.008381
-0.007325
-0.006789
-0.006513
-0.006756
-0.008038
-0.008801
-0.007745
-0.008768
-0.007452
-0.006397
-0.007939
-0.007143
-0.007905
-0.008928
-0.007872
-0.007855
-0.008099
-0.009121
-0.008845
-0.007269
-0.005434
-0.005678
-0.007739
-0.006424
-0.006927
-0.008988
-0.006893
-0.007916
-0.008678
-0.007363
-0.008126
-0.007330
-0.007313
-0.008855
-0.007799
-0.008042
-0.007506
-0.007230
-0.007213
-0.006937
-0.008479
-0.007423
-0.005848
-0.005831
-0.006075
-0.008136
-0.007600
-0.006284
-0.007047
-0.006771
-0.007274
-0.008296
-0.008799
-0.008782
-0.007207
-0.007450
-0.007174
-0.006118
-0.008439
-0.007903
-0.006588
-0.006311
-0.006035
-0.006538
-0.005482
-0.006245
-0.006748
-0.005432
-0.008273
-0.009036
-0.005902
-0.007964
-0.007947
-0.006372
-0.008174
-0.007118
-0.007880
-0.008124
-0.008107
-0.008610
-0.004177
-0.005200
-0.006222
-0.004647
-0.006449
-0.005393
-0.006935
-0.009256
-0.007681
-0.007664
-0.006089
-0.005033
-0.007095
-0.008377
-0.005763
-0.004447
-0.005989
-0.005713
-0.005956
-0.006199
-0.004364
-0.003049
-0.001733
-0.000418
0.000378
0.004031
0.007165
0.010039
0.015251
0.019944
0.027234
0.033225
0.039476
0.048585
0.054316
0.061866
0.071234
0.077745
0.083736
0.086611
0.090264
0.096515
0.096532
0.094990
0.096825
0.099439
0.101534
0.099472
0.099229
0.102623
0.109913
0.126814
0.139559
0.151266
0.184792
0.222995
0.254703
0.299140
0.365917
0.458931
0.556360
0.659764
0.790185
0.928658
1.055441
1.155728
1.260171
1.373966
1.456589
1.539212
1.576895
1.536128
1.483671
1.381339
1.204194
1.006008
0.729112
0.311682
0.009069
-0.100537
-0.349378
-0.643159
-0.807835
-0.962640
-0.991717
-0.946761
-1.047794
-1.039205
-0.651874
-0.463266
-0.593913
-0.241132
0.045929
-0.088355
0.006217
-0.091439
-0.101034
0.302922
0.416198
0.400368
0.544556
0.771870
0.506144
0.000912
-0.059078
-0.746927
-1.536605
-1.545680
-1.608787
-1.266656
-0.788666
-1.375465
-2.103059
-2.029008
-2.541773
-3.312229
-2.573432
-1.719039
-1.443928
-0.984382
-1.131913
-2.854937
-5.396230
-4.981104
-1.159902
1.323756
1.396508
0.535134
0.182645
1.504621
2.104961
2.742968
5.135187
5.644869
5.003778
4.408926
3.983703
9.149984
14.127673
10.510941
5.746554
3.493604
-0.340035
-6.623025
-12.886013
-14.961802
-12.891954
-8.366780
-4.176188
-5.089255
-8.450376
-8.550110
-9.836724
-15.558096
-12.881690
1.374650
13.975749
24.084114
28.671373
19.243372
6.858434
2.939591
1.513482
-4.195421
-9.016177
-9.020057
-7.627944
-3.699977
3.049330
9.682520
13.589187
10.689674
1.008140
-8.979660
-13.152036
-14.157581
-14.778669
-8.966346
-0.844165
-1.248088
-7.177014
-13.478708
-13.632214
-6.305443
-3.144570
-3.831380
-2.291199
0.425470
3.275660
5.747629
7.678240
9.646259
12.786610
10.194922
2.771291
6.113482
14.333335
11.291209
3.503643
-0.423771
-4.390931
-7.356944
-4.982649
0.566271
7.608076
10.828176
5.779863
-0.860568
-3.177681
0.936540
4.786836
1.650415
-0.756578
0.337321
2.240658
2.737610
0.938215
2.237590
1.685340
-4.202803
-5.038719
-1.978636
-2.242024
-1.625578
5.029692
13.276821
14.128876
4.244724
-8.922117
-14.541659
-14.397212
-9.914900
-2.129638
-5.265800
-14.657952
-16.912202
-19.436090
-25.418529
-27.213509
-17.891460
-3.821114
1.409589
5.076750
8.218919
0.813472
1.139497
14.522238
18.786864
18.102652
20.082100
17.547042
12.285719
2.859017
-4.997907
-4.378343
-3.322890
0.181136
10.647722
20.139659
23.327547
11.094833
-20.454225
-36.189650
-41.857510
-55.714293
-21.007464
25.027065
11.570844
-4.668271
2.825790
-5.476376
-31.213906
-24.101443
19.878322
37.488006
44.252120
54.981331
25.583671
9.320397
22.195032
-7.312250
-24.002582
14.706232
29.365732
9.502854
-15.790472
-51.934824
-62.629453
-30.772277
-12.610067
-26.734152
-49.072358
-52.065647
-12.396211
8.078193
-3.412104
3.478516
-2.350400
-8.427913
5.118221
-1.481686
-17.396611
15.891626
60.065438
44.098559
21.944528
-1.402877
-37.099648
-20.103276
10.741064
-5.934202
-26.511961
-25.771606
-35.381703
-42.519850
-23.047889
-17.205432
-25.702165
-2.457075
20.557600
7.437778
-12.813972
-19.988486
-4.735676
33.566082
45.699858
2.278367
-33.644922
-29.669417
-32.551266
-39.782669
-18.556236
14.939036
29.007824
13.499695
-11.905071
-18.133510
-16.632555
-28.755387
-26.270691
1.823487
23.080572
32.679793
41.003553
30.268660
-15.994172
-69.954707
-87.999469
-65.892163
-29.221748
-8.043632
12.010469
74.509868
130.425190
124.360665
94.183961
55.293862
8.640859
-2.076370
21.876587
29.908628
3.436735
-21.541493
-12.426480
-21.417031
-77.197760
-101.806338
-61.067697
-21.290457
27.139912
124.106618
168.597606
133.852884
97.611119
55.882536
-6.699956
-71.534636
-80.835610
-26.651901
-10.803444
-39.900032
-48.483527
-25.543405
8.133705
3.902621
-15.169783
-19.403983
-28.514288
-41.529683
-52.057541
-52.532899
-34.473297
19.670407
54.134874
51.866337
80.607856
93.560161
45.006695
9.085224
35.450126
76.325665
105.386698
122.209286
91.604485
29.874031
-16.392178
-47.749007
-91.857844
-134.421581
-136.011863
-117.158150
-90.310340
-43.523782
-7.657349
32.576823
126.288897
191.780044
169.344425
169.388082
199.378825
173.002786
121.826184
87.025871
55.973490
40.399121
59.532863
87.957465
125.573956
155.453778
118.918994
79.989151
105.974272
120.112158
77.872092
51.549046
61.967834
53.330308
10.958799
-46.995408
-76.236427
-73.516641
-86.482420
-109.750076
-115.844735
-90.026904
-59.610401
-59.914833
-42.980805
-6.945262
-26.275096
-90.981451
-110.999411
-72.281764
-75.638469
-102.149587
-69.955233
-59.740882
-106.996547
-142.890742
-150.434906
-133.083691
-103.976938
-104.362417
-125.216050
-103.277073
-53.811529
-50.729626
-87.939806
-81.229724
-28.657096
-25.944063
-78.934105
-129.684168
-161.992787
-203.671754
-249.004617
-252.931512
-255.241612
-280.594685
-288.248730
-268.608440
-258.021842
-270.330408
-256.325264
-230.447686
-229.556146
-223.459636
-212.368568
-230.253054
-261.053460
-273.165123
-288.702605
-314.325837
-324.487162
-318.637172
-293.888286
-268.875475
-270.235863
-279.572425
-289.602828
-296.696034
-282.458137
-238.148727
-169.902481
-105.472746
-55.965639
-6.831039
29.794956
8.256055
-59.474258
-115.693215
-141.709736
-152.223306
-163.113540
-148.292984
-103.844598
-58.408833
-7.644710
36.197119
35.467447
-15.566802
-69.391738
-94.461664
-118.068837
-132.273450
-92.048110
-20.967537
40.409665
92.625892
137.215072
176.679551
221.156512
264.824036
289.348483
288.301895
265.519745
246.731787
223.821831
173.843538
138.337176
140.933573
157.900592
173.102747
200.655308
238.943038
273.745722
295.188022
282.752689
253.103834
175.856143
26.388035
-93.005702
-117.562587
-98.097900
-80.545364
-66.933249
-53.600903
-25.349307
26.848996
82.444544
103.036883
94.389745
84.175427
61.800074
31.870410
-5.414583
-37.102097
-57.503993
-85.143024
-89.967157
-73.627479
-69.826538
-105.134177
-188.824632
-321.661099
-464.734241
-545.181493
-581.423517
-583.643737
-571.186030
-561.575899
-529.300757
-526.354193
-554.855913
-564.494585
-552.564727
-544.582561
-544.981548
-552.031373
-562.153993
-521.109605
-416.481304
-302.448104
-197.474311
13.925361
261.379782
296.002187
356.450199
448.200766
213.136529
103.643586
183.519902
228.870462
225.804957
38.362935
261.098360
402.795024
136.336795
217.070344
289.739918
226.702832
273.212996
274.614720
94.074732
-49.224408
-125.006228
-160.525059
-85.142989
-166.151339
-206.341836
-115.152109
-90.280353
8.943737
96.614649
74.266571
215.231730
362.808761
267.198855
150.550865
206.201224
261.949255
185.578022
266.050505
276.246152
149.159129
203.775871
214.897591
148.797322
109.290534
89.022937
64.044450
20.450733
42.547648
80.563921
82.089295
89.273973
92.464459
66.270518
44.365604
54.578656
58.124505
11.873882
-76.056245
-158.312780
-191.490322
-177.892234
-139.482413
-84.334186
-9.227470
43.248785
65.904721
137.167391
186.678654
151.932893
112.735489
84.627317
68.592379
28.520077
-20.256790
-12.392559
12.888592
39.470660
28.706673
-3.483232
-22.335872
-77.494977
-121.800198
-155.117495
-184.035883
-139.608797
-26.525829
46.900968
45.776189
114.107119
211.505300
243.697057
251.096043
238.638629
241.405694
247.529739
239.479028
237.359858
246.848418
266.570535
278.576505
273.047621
252.898999
242.277884
233.919089
211.127328
158.760729
89.248148
52.413592
65.582544
102.908873
121.023027
127.668946
150.466975
203.217284
257.849612
272.367798
242.616335
221.160560
229.527702
209.319592
195.477875
188.613005
152.137189
119.256561
106.912146
130.913940
128.924394
77.523092
49.116188
23.301247
-27.208531
-53.860963
-51.093898
-42.702079
-23.340000
0.712708
20.278185
32.976696
38.330530
47.104987
63.736645
88.393574
104.861578
106.271355
137.467940
193.365338
240.875869
269.789354
238.116128
175.115409
145.689955
130.524460
96.263426
67.969520
56.703142
65.017810
70.188248
42.579090
58.701343
98.214139
143.857198
186.327712
212.760673
232.987519
183.702807
249.996117
293.447774
184.991825
230.131974
291.955457
264.333052
244.785272
244.416419
231.148269
188.335415
172.755590
120.840208
80.259020
92.558268
115.458126
126.170193
106.640857
125.086994
150.459063
159.686816
168.011095
140.448956
113.910822
102.510663
98.633124
85.850741
48.092970
66.640936
88.393139
54.449281
40.807845
30.655871
24.913718
27.016556
18.691011
3.540843
-25.259610
-61.279014
-67.979191
-32.786076
-7.395823
-5.048024
-19.430838
-29.759194
-42.698477
-69.002821
-103.003568
-139.387426
-143.880095
-153.609946
-131.708636
-102.885550
-118.210282
-86.621447
-61.665526
-52.291524
-41.645179
-58.770622
-51.099139
-26.625607
-1.350432
-9.938343
-57.394029
-79.498704
-71.566414
-61.818346
-65.169855
-69.672137
-50.917395
-17.574088
27.066008
74.123503
90.935180
81.663820
53.010915
24.264494
17.943058
12.318320
5.710879
19.103231
48.813425
77.743795
106.721443
138.264299
161.646806
169.004749
151.140266
111.468525
64.654725
17.889502
-15.660808
-47.704723
-92.998101
-124.867712
-143.902190
-169.632966
-196.023552
-218.255773
-233.784683
-248.399989
-262.407438
-260.009763
-240.249720
-204.183785
-169.404480
-163.347195
-176.419220
-192.405841
-201.867091
-217.631871
-253.914939
-274.111099
-260.504958
-232.892650
-188.757803
-118.112082
-47.961218
20.976530
112.027801
166.889504
169.542011
155.761080
117.535467
65.039244
0.713190
-67.006993
-110.643311
-97.151468
-19.464737
53.111320
78.427799
97.370872
129.249348
129.811243
112.931800
112.487613
82.010358
24.013809
-27.059665
-83.167961
-142.959247
-187.392534
-197.666598
-201.769097
-221.396625
-237.890053
-235.826440
-192.902372
-148.504900
-115.541113
-73.913027
-44.796922
-5.063324
32.146629
44.246376
46.355708
30.005153
10.383859
-2.608157
-24.808947
-54.446372
-72.858706
-86.890573
-119.039954
-170.555813
-209.892453
-194.488458
-162.437236
-153.220654
-150.671015
-143.291771
-123.729152
-107.517019
-96.312432
-85.307867
-65.407030
-26.506507
16.308978
55.917888
88.293820
109.750927
119.138697
117.316701
106.876385
97.756469
92.037955
77.447327
49.571128
7.767212
-45.274264
-96.327996
-130.014943
-138.510636
-131.596117
-115.612321
-63.206723
8.567431
64.857598
118.817386
164.772167
194.048029
200.836560
188.498640
179.411974
166.069791
131.711084
80.479930
29.715580
-8.249745
-41.015816
-76.257734
-99.410053
-106.706398
-100.293490
-87.684858
-89.604267
-91.640311
-83.724646
-71.414228
-66.178069
-73.471557
-68.149155
-47.344585
-28.517109
-34.984275
-61.006510
-90.752518
-125.968719
-157.170207
-186.686061
-187.844609
-154.464415
-103.610671
-53.927441
-48.376703
-45.458973
-30.529315
-28.746511
-24.823219
-30.411071
-12.369392
39.448870
72.483573
88.836760
110.834444
121.381558
104.708370
80.579843
70.250968
74.504164
81.540255
77.142141
69.123901
70.045315
60.765642
49.223390
65.818940
90.812268
98.200084
99.104873
109.597695
124.477997
135.156294
136.241361
126.669190
117.086368
113.771226
113.093508
106.941181
93.174797
78.682621
62.778346
41.330105
14.255290
-14.359169
-21.181957
-3.764761
15.229227
34.847956
49.088710
47.011882
35.735373
23.753074
14.624846
11.598567
8.607615
-5.211762
-22.990262
-35.137253
-46.421035
-61.892537
-75.492670
-78.319188
-70.440670
-47.568607
-7.839424
34.984633
71.150839
92.533392
90.596579
80.358363
84.574932
99.647723
107.392720
102.912000
93.928203
76.084761
46.258224
9.538227
-31.343513
-68.889573
-97.962263
-95.866698
-60.285490
-17.583003
31.869812
80.859461
116.490026
141.977951
156.291960
146.075564
125.087371
