EVENT_NAME: 202302060117
EVENT_ID: 12439
EVENT_DATE_YYYYMMDD: 2023/02/06
EVENT_TIME_HHMMSS: 01:17:34.00000
EVENT_LATITUDE_DEGREE: 37.236
EVENT_LONGITUDE_DEGREE: 37.057
EVENT_DEPTH_KM: 7.0
HYPOCENTER_REFERENCE: AFAD
MAGNITUDE_W: 7.4
MAGNITUDE_W_REFERENCE: AFAD
MAGNITUDE_L: 
MAGNITUDE_L_REFERENCE: 
FOCAL_MECHANISM: 
NETWORK: TK
STATION_CODE: 4615
STATION_NAME: 
STATION_LATITUDE_DEGREE: 37.38676
STATION_LONGITUDE_DEGREE: 37.13803
STATION_ELEVATION_M: 581.0
LOCATION: Kahramanmaras_Pazarcık_Turkiye
SENSOR_DEPTH_M: 
VS30_M/S: 484
SITE_CLASSIFICATION_EC8: B
MORPHOLOGIC_CLASSIFICATION: 
EPICENTRAL_DISTANCE_KM: 18.23
EARTHQUAKE_BACKAZIMUTH_DEGREE: 
DATE_TIME_FIRST_SAMPLE_YYYYMMDD_HHMMSS: 2023/02/06 01:17:07.365441
DATE_TIME_FIRST_SAMPLE_PRECISION: millisecond
SAMPLING_INTERVAL_S: 0.01
NDATA: 10501
DURATION_S: 
STREAM: HNZ
UNITS: cm/s^2
INSTRUMENT: sensor = GMS+/GEOSIG | digitizer = 
INSTRUMENT_ANALOG/DIGITAL: 
INSTRUMENTAL_FREQUENCY_HZ: 
INSTRUMENTAL_DAMPING: 
FULL_SCALE_G: 
N_BIT_DIGITAL_CONVERTER: 
PGA_CM/S^2: 664.181
TIME_PGA_S: 
BASELINE_CORRECTION: BASELINE REMOVED
FILTER_TYPE: BUTTERWORTH
FILTER_ORDER: 
LOW_CUT_FREQUENCY_HZ: 
HIGH_CUT_FREQUENCY_HZ: 
LATE/NORMAL_TRIGGERED: 
DATABASE_VERSION: 
HEADER_FORMAT: DYNA 1.2
DATA_TYPE: Acceleration
PROCESSING: Manual Paolucci et al., 2011
DATA_TIMESTAMP_YYYYMMDD_HHMMSS: 
DATA_LICENSE: U (unknown license)
DATA_CITATION: Turkish Accelerometric Archive v 1.0 - Disaster And Emergency Management Presidency, Earthquake Department
DATA_CREATOR: AFAD
ORIGINAL_DATA_MEDIATOR_CITATION: : AFAD - Disaster And Emergency Management Presidency
ORIGINAL_DATA_MEDIATOR: AFAD PROCESS SERVICE
ORIGINAL_DATA_CREATOR_CITATION: AFAD PROCESS SERVICE
ORIGINAL_DATA_CREATOR: network: TK
USER1: GuestUser
USER2: 
USER3: 
USER4: 
USER5: 
[...]
0.043772
0.041932
0.044508
0.042149
0.041348
0.043924
0.041825
0.042063
0.041781
0.041760
0.042518
0.041717
0.041695
0.042193
0.042691
0.040592
0.041350
0.043146
0.041306
0.041804
0.042562
0.041761
0.041480
0.041718
0.041957
0.044013
0.044771
0.042671
0.042130
0.041849
0.041827
0.041806
0.042304
0.043062
0.042001
0.041980
0.042478
0.042196
0.042954
0.041374
0.042132
0.042110
0.041050
0.041028
0.041007
0.042024
0.041743
0.043540
0.042219
0.040120
0.042696
0.041895
0.041614
0.041332
0.041051
0.039991
0.040489
0.043324
0.042004
0.041723
0.042221
0.042719
0.041918
0.040338
0.041615
0.040295
0.042092
0.043369
0.039711
0.041248
0.042785
0.040945
0.040664
0.041421
0.039582
0.039300
0.041097
0.040556
0.040794
0.041552
0.041011
0.040470
0.039409
0.040687
0.041185
0.039864
0.041142
0.040860
0.039540
0.041077
0.041315
0.041034
0.040493
0.039692
0.039930
0.038870
0.039887
0.040385
0.040104
0.041381
0.040061
0.040559
0.042616
0.041815
0.042573
0.042551
0.040971
0.041469
0.039629
0.039608
0.041664
0.040344
0.039543
0.040041
0.041059
0.040777
0.039976
0.041254
0.040713
0.039133
0.040410
0.039609
0.038289
0.040865
0.041623
0.040822
0.040281
0.038960
0.040238
0.039956
0.040195
0.041472
0.041710
0.040390
0.039329
0.040866
0.039806
0.039784
0.041061
0.039741
0.038940
0.039179
0.039677
0.039915
0.038854
0.039612
0.041409
0.041387
0.041885
0.039266
0.040024
0.042080
0.039202
0.038660
0.039418
0.040176
0.039635
0.040133
0.040111
0.038791
0.039809
0.038488
0.038986
0.039744
0.038683
0.038922
0.037861
0.038879
0.039896
0.040134
0.040113
0.038793
0.039810
0.039269
0.038208
0.040265
0.039724
0.039443
0.041759
0.038880
0.036261
0.039876
0.039335
0.036716
0.037474
0.038231
0.038470
0.037669
0.038686
0.039964
0.039163
0.038882
0.038600
0.038839
0.040116
0.040094
0.038254
0.037973
0.037952
0.037930
0.040246
0.039705
0.037866
0.038883
0.038862
0.037801
0.038559
0.039836
0.037217
0.035637
0.037953
0.036893
0.037910
0.039967
0.038127
0.038885
0.038603
0.037283
0.037781
0.036461
0.037738
0.037716
0.035876
0.038193
0.038691
0.037890
0.037868
0.038626
0.039384
0.039103
0.036743
0.037501
0.039558
0.037458
0.038476
0.038194
0.037393
0.037891
0.037091
0.038888
0.038087
0.038065
0.039862
0.038022
0.036442
0.037460
0.038217
0.038715
0.037395
0.038153
0.040729
0.038369
0.035231
0.036248
0.038045
0.038024
0.036963
0.039279
0.038998
0.037158
0.040254
0.038154
0.035795
0.038111
0.037310
0.036769
0.036488
0.035947
0.037744
0.038502
0.037960
0.038718
0.037398
0.037117
0.036835
0.036554
0.038091
0.037290
0.036749
0.038286
0.038265
0.036425
0.036403
0.037161
0.036620
0.036339
0.036837
0.036815
0.036794
0.037292
0.037010
0.038288
0.038266
0.035647
0.035626
0.035604
0.036362
0.036340
0.035799
0.038895
0.036535
0.035475
0.039350
0.036471
0.035670
0.037207
0.035887
0.036125
0.035584
0.036601
0.036840
0.036558
0.037316
0.036256
0.036494
0.036213
0.036191
0.036170
0.035888
0.036906
0.035845
0.036343
0.036581
0.036040
0.036798
0.035218
0.037015
0.038812
0.035673
0.036171
0.037448
0.034050
0.034288
0.036604
0.036063
0.036302
0.035501
0.034440
0.034938
0.035956
0.037233
0.038251
0.036411
0.036649
0.037667
0.033489
0.033467
0.035004
0.034463
0.035221
0.033381
0.033879
0.037494
0.035135
0.034334
0.036650
0.035850
0.037127
0.037105
0.033967
0.035244
0.036521
0.035461
0.034140
0.033599
0.034877
0.035894
0.035613
0.034292
0.035310
0.036068
0.036046
0.035765
0.034185
0.033644
0.033363
0.033861
0.034618
0.035636
0.034835
0.033255
0.033493
0.033731
0.034749
0.035766
0.035225
0.034425
0.034143
0.034901
0.034880
0.034338
0.033278
0.034036
0.035833
0.033213
0.033711
0.036547
0.034448
0.035205
0.036483
0.036201
0.035401
0.033301
0.033799
0.035336
0.033756
0.033475
0.033453
0.032392
0.034709
0.035207
0.034666
0.033345
0.032285
0.035121
0.034060
0.034039
0.034017
0.032697
0.033455
0.032654
0.034191
0.034429
0.033368
0.033866
0.032806
0.032784
0.035101
0.033521
0.032200
0.034257
0.033196
0.032655
0.033413
0.034430
0.034149
0.032309
0.032548
0.033305
0.033024
0.033262
0.033241
0.033479
0.033977
0.032657
0.032635
0.033393
0.034151
0.032830
0.031510
0.032008
0.031467
0.032484
0.031684
0.032182
0.032939
0.032918
0.032377
0.032355
0.034931
0.033871
0.032031
0.032529
0.034066
0.033265
0.032205
0.032962
0.032681
0.032400
0.032119
0.032097
0.031556
0.033093
0.033331
0.031751
0.032249
0.031968
0.031687
0.033483
0.033462
0.032661
0.032380
0.032098
0.031038
0.030237
0.030735
0.033051
0.032251
0.031710
0.032987
0.031926
0.032684
0.032143
0.031082
0.032360
0.031299
0.031278
0.032815
0.032014
0.032772
0.033270
0.032729
0.031928
0.031906
0.033443
0.030824
0.030283
0.032080
0.030500
0.029699
0.031236
0.032513
0.032492
0.031691
0.030890
0.031128
0.030847
0.032124
0.033662
0.032861
0.033359
0.032298
0.029419
0.030696
0.032493
0.030653
0.030372
0.030870
0.030849
0.030308
0.029247
0.029485
0.030243
0.032819
0.031239
0.030438
0.031196
0.029876
0.031932
0.031911
0.032409
0.033166
0.031327
0.031825
0.030764
0.029703
0.031240
0.030699
0.030158
0.031436
0.029596
0.030873
0.033709
0.031350
0.029510
0.030527
0.029986
0.028926
0.031502
0.031740
0.031718
0.031697
0.029337
0.032173
0.031373
0.028234
0.030031
0.030529
0.029988
0.028927
0.029945
0.032261
0.030681
0.030659
0.029339
0.029058
0.031114
0.029274
0.029772
0.030011
0.029729
0.030747
0.030466
0.032262
0.030423
0.031180
0.031419
0.028540
0.031376
0.031094
0.029514
0.030791
0.031030
0.031787
0.030467
0.030965
0.030684
0.029104
0.031680
0.029840
0.028260
0.030316
0.027697
0.030014
0.031291
0.029191
0.031248
0.030967
0.028867
0.029105
0.030642
0.030880
0.028521
0.029019
0.032634
0.031574
0.030253
0.028933
0.028392
0.029669
0.027310
0.029366
0.030644
0.028284
0.028263
0.027202
0.027960
0.027938
0.028177
0.029194
0.029692
0.028632
0.029909
0.029628
0.027008
0.030364
0.030083
0.027723
0.029260
0.028459
0.029217
0.029715
0.028135
0.027594
0.028612
0.028850
0.027529
0.026988
0.027746
0.029023
0.028223
0.028201
0.029738
0.030236
0.030474
0.030713
0.029912
0.028851
0.028050
0.027769
0.027748
0.027986
0.029003
0.029242
0.028701
0.028679
0.028658
0.028116
0.027056
0.028073
0.030130
0.028550
0.026970
0.027987
0.029265
0.028983
0.029222
0.028681
0.028139
0.028378
0.027317
0.027555
0.029092
0.029071
0.027491
0.026430
0.028227
0.027946
0.026885
0.027643
0.026582
0.027860
0.027319
0.027037
0.028055
0.027254
0.029051
0.029029
0.027709
0.027947
0.027666
0.026865
0.026844
0.028381
0.028099
0.027299
0.027017
0.027256
0.027754
0.026693
0.025892
0.027169
0.026888
0.027126
0.027365
0.027083
0.026802
0.027820
0.028837
0.026737
0.028275
0.030331
0.026933
0.027950
0.028968
0.027388
0.028405
0.026565
0.026284
0.028081
0.027020
0.026219
0.024899
0.025917
0.027713
0.027432
0.026631
0.026350
0.028926
0.028385
0.025506
0.027303
0.027281
0.026221
0.028018
0.027736
0.027975
0.028473
0.028191
0.026351
0.025551
0.026308
0.025248
0.025226
0.026504
0.026742
0.027240
0.026959
0.025898
0.027435
0.027414
0.027132
0.026851
0.026570
0.028367
0.026267
0.025466
0.025964
0.024124
0.025142
0.025380
0.025099
0.024817
0.024017
0.026073
0.025792
0.024471
0.026009
0.026766
0.026745
0.025424
0.024883
0.027460
0.028217
0.026377
0.026875
0.026594
0.025534
0.027330
0.024971
0.025469
0.027006
0.024387
0.024365
0.023824
0.023803
0.025080
0.026357
0.027375
0.025795
0.026553
0.026791
0.025470
0.026488
0.025947
0.025146
0.026164
0.026142
0.025601
0.026359
0.026078
0.025277
0.024995
0.026013
0.026511
0.024931
0.026468
0.026706
0.026425
0.028222
0.027940
0.028958
0.030755
0.032292
0.033829
0.037964
0.043917
0.050909
0.061019
0.066972
0.071366
0.078618
0.087429
0.099357
0.104530
0.102691
0.104487
0.120052
0.142630
0.152480
0.152718
0.149579
0.150597
0.159667
0.156788
0.144038
0.151290
0.163478
0.156962
0.159278
0.179519
0.211968
0.256107
0.264918
0.248011
0.300983
0.412661
0.494207
0.542762
0.632101
0.778328
0.929232
1.067667
1.228961
1.497540
1.772093
1.844027
1.850240
1.884767
1.826818
1.843941
1.956659
1.810388
1.414740
1.164821
0.969974
0.694079
0.475333
-0.243986
-0.998114
-0.704598
-0.411861
-1.125465
-1.739578
-1.352025
-0.869658
-0.655890
-0.879053
-1.377309
-0.396447
0.171125
-1.274506
-0.985405
0.019355
-1.254048
-1.831015
-0.948604
-0.102042
0.525276
0.713066
0.546793
0.686787
1.290206
0.398661
-0.169213
-0.047403
-2.110242
-3.947342
-3.837222
-3.097425
-3.373580
-3.587910
-2.207265
-0.833893
-1.897405
-4.410681
-3.664129
-2.921994
-6.026762
-5.839750
0.507138
3.886437
-3.107056
-13.158018
-12.318470
-0.728945
9.481211
12.368510
7.194951
-0.555247
1.588856
7.571030
5.015152
1.805698
1.589549
3.251783
7.188804
9.271861
14.033646
20.124662
20.758215
15.465941
4.849984
-10.861581
-33.439071
-51.846768
-50.996049
-32.141595
-7.937741
14.558660
25.975698
14.219360
3.899278
6.705529
-3.955627
-13.975937
-1.678285
18.113152
36.567563
38.679974
16.791388
-7.184434
-21.916673
-21.346245
-4.194050
17.454987
22.313665
2.100842
-16.350236
-19.315768
-7.731958
11.608002
19.415565
10.302105
1.899111
2.839190
-13.652198
-36.050709
-36.505065
-25.081792
-0.195007
19.393551
11.478401
1.771112
5.986604
6.707698
-5.035912
-14.215093
-6.772244
6.428881
13.663396
14.650493
8.248751
4.781087
2.752538
2.946303
17.697463
26.976871
21.686676
13.224195
-1.693000
-14.692068
-11.340564
-3.468838
2.475150
7.749716
-1.041371
-9.937405
-7.056860
-2.426518
4.531863
6.523742
4.266857
5.837392
5.805679
3.642051
1.466473
1.887795
6.294217
4.684933
0.608113
1.684830
0.901089
1.919357
6.148358
7.952165
9.277219
17.524569
22.082176
6.400744
-11.546123
-29.698468
-44.418758
-29.772545
-9.500018
-5.362715
-4.588369
-7.764053
-18.305197
-27.288253
-15.361031
9.085447
13.309512
6.550329
-1.892150
-21.135519
-15.836535
10.393769
15.868097
17.817634
18.457161
18.835361
23.427257
12.231498
2.191187
-4.959726
-14.759233
-4.545439
39.613527
58.581760
34.975588
13.699275
-47.592729
-88.145381
-125.978002
-164.434327
-36.957916
99.474254
97.124112
1.570018
-40.055475
19.846987
-40.660258
-63.886389
40.783178
47.519977
42.103275
57.875842
-26.895285
-81.047047
-1.611077
15.915963
-12.483446
17.696110
-53.434084
-91.163838
34.816310
80.019544
19.399041
-13.781657
9.875906
30.505613
-3.482963
-5.622693
10.564464
-33.455570
-18.496855
100.429814
128.343155
38.078196
-44.275791
-127.789122
-167.771063
-48.810104
64.178270
37.430985
64.945582
80.031322
28.221368
76.134501
92.032016
39.269233
-11.015364
-70.978914
-81.638513
-44.466783
22.911020
25.347102
-15.464798
-13.562799
-17.503500
5.664920
-16.422389
-73.671884
-40.504477
37.605898
63.734633
23.110025
35.101151
42.326574
-10.026815
-32.350253
-68.253319
-74.207741
-26.441117
13.882117
50.010099
52.062503
20.841755
-25.295908
-20.447621
55.823337
87.696840
80.585412
80.419139
90.409792
131.584025
158.392573
106.962139
-24.643066
-122.861599
-136.014190
-58.701823
140.850576
234.593524
78.098655
-100.243995
-173.073331
-173.274153
-113.079453
-67.567614
32.454704
174.158344
165.316602
138.290586
101.870062
-16.774802
-88.456743
-166.877583
-203.221475
-106.897473
39.793452
114.537494
119.334087
191.601242
169.928004
-41.365688
-205.177700
-202.015047
-123.010811
-123.147730
-101.051892
-23.954093
-49.782579
-100.497612
-87.542488
-46.030556
-87.726966
-199.202755
-228.323540
-219.904743
-229.880372
-148.140260
7.882567
38.321891
-32.879739
-27.729342
22.560668
46.367337
59.348439
22.373570
-59.585049
-107.386265
-152.612402
-145.048761
-54.658897
-4.589690
34.560951
58.142402
75.102109
50.571942
-93.390943
-133.592128
-120.905085
-236.006455
-275.335859
-89.089293
111.219549
97.201152
21.350975
-34.344069
-142.640558
-207.021982
-177.237792
-122.012712
-75.406212
-55.546456
-66.165011
17.066169
184.662956
211.481895
107.328963
73.102440
67.635343
75.390692
153.526264
145.652417
94.865429
110.836719
124.129541
125.351728
101.260569
44.370334
-55.076122
-177.745052
-159.256870
-26.006598
-9.828533
-56.364419
-77.430061
-161.255113
-231.301035
-189.698705
-148.581880
-183.090252
-154.453977
27.615001
175.794136
130.180426
43.316089
-10.396665
-41.402067
8.362432
1.892371
-45.208251
-2.774922
4.975492
-76.640234
-169.301552
-200.484375
-201.116931
-235.091740
-188.130916
-70.489059
-32.556469
-35.258337
12.153184
32.525202
-55.975933
-140.797455
-136.101132
-83.830392
-62.717516
-33.248945
59.342972
45.969838
-42.734954
-84.788286
-171.733410
-254.944111
-260.272493
-268.354414
-293.527506
-257.704232
-159.897474
-19.246673
136.677963
216.356556
219.030066
152.204746
28.393877
-52.008992
-77.899303
-93.464879
-115.692982
-161.046664
-201.257202
-165.560435
-64.901165
-1.707184
-15.576994
-91.725125
-197.103642
-278.592081
-328.201542
-342.709082
-302.717053
-228.467869
-131.567701
-26.939957
43.018121
88.685301
141.844447
171.010388
118.689730
65.890060
112.439671
171.399435
192.490750
189.510411
146.544775
91.809314
56.091983
93.505296
180.168270
219.057325
255.833168
378.224622
539.860514
635.000235
664.181243
638.130915
508.120425
337.039327
210.018506
138.553731
133.046630
166.135846
159.512002
51.747777
-81.239913
-147.620510
-109.769488
-73.865686
-124.959980
17.659603
100.538537
-120.562173
-187.493478
-174.270793
-219.676429
-232.130764
-270.257963
-289.579263
-290.599653
-273.161194
-224.748007
-169.291474
-184.480386
-283.175853
-308.680668
-202.974108
-92.131676
-30.261473
72.487630
281.799509
532.389291
600.131288
458.626327
319.058716
208.496530
121.589851
121.570607
134.794071
90.344641
30.419796
-20.752948
-74.745472
-129.124012
-165.541418
-202.467190
-221.304283
-277.850326
-305.226769
-151.018161
58.348270
271.424965
243.812653
291.609929
481.852245
195.516016
66.777869
169.426442
164.043509
135.267436
110.084733
151.085181
49.325752
135.086292
113.366035
-39.784322
40.013505
59.163835
71.606697
7.825597
-10.614570
6.051339
-2.514789
-22.862952
14.780256
68.232161
-118.980265
-131.689692
-46.005784
-46.879924
31.869739
180.113037
325.379914
253.569128
160.579723
143.004843
62.333114
39.061004
39.432970
-9.987120
-34.262714
-113.920309
-153.611570
-51.276018
30.507994
90.913626
70.576634
-6.272091
-2.142582
-20.937852
-65.455082
-105.884863
-173.716784
-208.716377
-162.404713
-32.182036
128.979781
289.212927
320.862510
206.298340
87.907788
-61.772848
-170.799805
-194.354803
-206.887847
-192.542185
-149.260455
-107.055722
-129.068477
-154.716944
-92.995588
10.686341
72.394969
80.353977
111.907965
94.817552
-47.682060
-174.569361
-209.606360
-212.155225
-198.579255
-183.873035
-162.568970
-107.512479
-2.190635
140.795220
238.417023
231.677843
104.396994
13.720043
47.299182
71.189237
52.103027
4.130884
4.359198
91.790825
156.841368
153.238625
146.986509
157.413832
90.973488
-18.597943
-53.696247
-20.363628
37.200662
99.294007
139.145242
116.925192
67.959436
31.502026
28.294130
127.430900
228.559050
203.581564
163.101387
200.204797
219.469944
156.982229
103.774464
93.663755
91.122943
127.969703
162.090458
95.718693
-1.578703
11.131460
100.633957
132.803855
150.951220
215.051792
173.185234
61.042101
57.132832
88.025710
80.975587
73.351897
61.793761
79.357688
95.322484
27.399904
11.096588
72.220738
40.805683
-8.041878
-2.948370
11.581467
56.903155
66.907836
27.232420
28.362908
26.035366
-19.435472
-6.574643
66.548447
73.394350
36.470656
20.457241
-23.467459
-61.048625
-38.447798
2.231317
-5.848266
-5.483313
9.266807
-0.896894
60.656912
4.757431
-73.660032
52.314920
30.200336
-96.363813
-107.445015
-133.520021
-179.430126
-156.130783
-92.204776
-43.165550
-3.897234
-15.090915
21.738700
76.527630
-14.429350
-103.044523
-137.238056
-178.453636
-180.666620
-120.953789
-62.713582
-81.808105
-115.039977
-106.621959
-81.120044
-80.787303
-110.121358
-134.482675
-141.586570
-149.420412
-154.405640
-125.447773
-128.296669
-158.064536
-105.734309
-37.350945
-2.748060
56.677467
69.668180
9.026376
-61.240349
-110.621993
-104.056381
-83.821520
-75.661712
-44.051614
-10.144128
-10.633552
-19.975088
-34.151425
-111.353434
-160.673253
-105.497788
-54.980222
-19.260076
13.977208
-7.364047
-17.452676
29.961963
57.090285
6.028202
-43.561256
-20.270746
-18.254449
-57.204073
-62.430105
-48.022618
-32.136792
-30.673801
-47.317153
-32.906289
-1.693896
3.224009
28.124561
106.802269
134.531954
48.394967
-27.651595
-17.672632
31.659094
94.336396
163.495948
203.196258
164.204552
126.208536
162.244040
126.171606
12.482074
-9.256366
35.519809
55.508930
70.570252
99.371220
84.158929
13.525671
-47.989732
-89.424296
-115.816479
-107.475093
-66.023687
-29.254079
-21.042317
-19.030695
-45.400538
-111.791526
-151.569290
-146.265370
-129.835850
-123.155679
-114.220983
-84.803846
-52.015441
-18.112891
18.017948
45.034310
64.640793
98.931695
147.307215
140.586478
100.310999
84.897647
35.465868
-24.532751
20.789976
104.245596
82.600932
45.622686
70.130989
47.042275
-48.622739
-124.285884
-138.583012
-119.871690
-46.349596
58.815088
79.703784
4.410290
-60.248565
-72.999555
-82.256666
-61.608255
-11.678544
-28.357744
-79.382680
-84.254909
-70.639974
-63.751470
-68.187028
-57.175228
-4.705246
6.654643
-33.735394
-39.626432
-30.689138
-40.978827
-34.887031
-7.264111
-0.193509
-18.511845
-26.181255
-22.631808
-36.978552
-68.233590
-55.196379
25.567785
71.401995
33.193749
-20.236638
-54.566290
-70.922858
-80.168799
-84.302768
-69.558102
-57.241487
-39.905897
4.521930
43.380852
75.004458
96.071875
86.236520
74.707998
69.990851
89.225345
125.567895
96.490751
25.265223
-13.251368
-23.597686
-1.809673
39.536786
70.996738
97.149892
85.087027
36.921876
46.121795
79.607418
60.918393
53.355488
49.226975
12.572661
-9.883259
-18.537968
-12.914534
19.170420
32.484544
20.790030
18.037248
-0.092497
-26.187245
-21.630158
-8.183293
11.195632
49.551903
62.071137
65.809436
104.888121
105.591551
63.680053
25.569480
-9.029291
11.325582
62.330473
89.474641
106.267057
93.784667
61.694995
24.214358
-37.470934
-91.865839
-123.321418
-119.113719
-68.754351
-39.428652
-54.166867
-52.835838
-35.318409
-37.028743
-23.382895
20.682555
82.668875
126.888108
93.228658
32.492817
1.992145
-13.097795
-21.813290
-41.074843
-40.319200
38.443971
124.607412
116.143372
61.566629
17.901698
-35.744296
-53.095776
3.215134
50.125563
43.430283
7.858161
-23.637942
-16.318482
-12.095976
-51.668264
-100.941844
-119.991947
-103.501900
-71.226017
-37.285541
-28.997927
-33.377376
-0.323747
33.139795
11.136651
-16.101077
-11.446836
-27.497918
-44.196341
-29.157618
-30.387900
-38.478394
-33.438398
-21.577416
-2.203427
13.983470
37.570636
66.935560
