EVENT_NAME: 202302060117
EVENT_ID: 12439
EVENT_DATE_YYYYMMDD: 2023/02/06
EVENT_TIME_HHMMSS: 01:17:34.00000
EVENT_LATITUDE_DEGREE: 37.236
EVENT_LONGITUDE_DEGREE: 37.057
EVENT_DEPTH_KM: 7.0
HYPOCENTER_REFERENCE: AFAD
MAGNITUDE_W: 7.4
MAGNITUDE_W_REFERENCE: AFAD
MAGNITUDE_L: 
MAGNITUDE_L_REFERENCE: 
FOCAL_MECHANISM: 
NETWORK: TK
STATION_CODE: 4615
STATION_NAME: 
STATION_LATITUDE_DEGREE: 37.38676
STATION_LONGITUDE_DEGREE: 37.13803
STATION_ELEVATION_M: 581.0
LOCATION: Kahramanmaras_Pazarcık_Turkiye
SENSOR_DEPTH_M: 
VS30_M/S: 484
SITE_CLASSIFICATION_EC8: B
MORPHOLOGIC_CLASSIFICATION: 
EPICENTRAL_DISTANCE_KM: 18.23
EARTHQUAKE_BACKAZIMUTH_DEGREE: 
DATE_TIME_FIRST_SAMPLE_YYYYMMDD_HHMMSS: 2023/02/06 01:17:07.365441
DATE_TIME_FIRST_SAMPLE_PRECISION: millisecond
SAMPLING_INTERVAL_S: 0.01
NDATA: 10501
DURATION_S: 
STREAM: HNE
UNITS: cm/s^2
INSTRUMENT: sensor = GMS+/GEOSIG | digitizer = 
INSTRUMENT_ANALOG/DIGITAL: 
INSTRUMENTAL_FREQUENCY_HZ: 
INSTRUMENTAL_DAMPING: 
FULL_SCALE_G: 
N_BIT_DIGITAL_CONVERTER: 
PGA_CM/S^2: 582.120
TIME_PGA_S: 
BASELINE_CORRECTION: BASELINE REMOVED
FILTER_TYPE: BUTTERWORTH
FILTER_ORDER: 
LOW_CUT_FREQUENCY_HZ: 
HIGH_CUT_FREQUENCY_HZ: 
LATE/NORMAL_TRIGGERED: 
DATABASE_VERSION: 
HEADER_FORMAT: DYNA 1.2
DATA_TYPE: Acceleration
PROCESSING: Manual Paolucci et al., 2011
DATA_TIMESTAMP_YYYYMMDD_HHMMSS: 
DATA_LICENSE: U (unknown license)
DATA_CITATION: Turkish Accelerometric Archive v 1.0 - Disaster And Emergency Management Presidency, Earthquake Department
DATA_CREATOR: AFAD
ORIGINAL_DATA_MEDIATOR_CITATION: : AFAD - Disaster And Emergency Management Presidency
ORIGINAL_DATA_MEDIATOR: AFAD PROCESS SERVICE
ORIGINAL_DATA_CREATOR_CITATION: AFAD PROCESS SERVICE
ORIGINAL_DATA_CREATOR: network: TK
USER1: GuestUser
USER2: 
USER3: 
USER4: 
USER5: 
[...]
-0.021205
-0.021975
-0.023524
-0.020397
-0.019868
-0.021158
-0.022707
-0.022438
-0.020610
-0.021120
-0.020851
-0.021881
-0.023690
-0.023940
-0.023151
-0.021323
-0.020794
-0.022084
-0.021815
-0.021026
-0.019718
-0.018929
-0.022037
-0.022287
-0.021239
-0.024087
-0.023038
-0.020171
-0.021201
-0.021451
-0.020663
-0.021952
-0.021943
-0.020634
-0.020885
-0.021135
-0.021385
-0.022935
-0.021626
-0.020058
-0.022647
-0.022377
-0.021329
-0.021060
-0.019232
-0.019742
-0.021031
-0.021542
-0.022571
-0.022562
-0.022293
-0.022543
-0.022533
-0.022005
-0.021216
-0.019648
-0.020937
-0.020928
-0.021178
-0.022727
-0.020120
-0.022449
-0.022180
-0.018533
-0.021901
-0.020333
-0.020323
-0.021873
-0.021863
-0.022893
-0.020805
-0.022095
-0.022085
-0.019218
-0.019469
-0.021018
-0.021528
-0.021259
-0.020730
-0.020721
-0.020192
-0.021221
-0.023809
-0.021722
-0.020154
-0.020144
-0.020914
-0.022464
-0.021155
-0.021406
-0.020617
-0.020348
-0.022676
-0.022667
-0.021878
-0.022908
-0.021599
-0.019252
-0.020542
-0.020272
-0.020263
-0.021552
-0.019984
-0.021534
-0.022044
-0.021255
-0.022544
-0.020976
-0.021486
-0.019918
-0.017571
-0.019120
-0.019371
-0.018582
-0.019092
-0.020641
-0.021671
-0.021142
-0.022951
-0.022162
-0.020594
-0.022143
-0.021614
-0.021085
-0.019777
-0.018469
-0.020278
-0.020788
-0.021818
-0.021289
-0.019461
-0.021789
-0.021260
-0.019692
-0.021241
-0.019154
-0.020184
-0.022252
-0.020165
-0.020415
-0.020925
-0.021435
-0.022465
-0.021936
-0.020887
-0.019319
-0.018791
-0.019041
-0.019031
-0.018243
-0.020311
-0.022120
-0.021851
-0.022361
-0.021832
-0.020784
-0.020774
-0.020245
-0.020756
-0.020746
-0.017879
-0.018909
-0.020718
-0.020449
-0.021738
-0.020949
-0.020940
-0.020671
-0.018843
-0.019613
-0.018564
-0.019594
-0.020104
-0.019835
-0.019826
-0.017478
-0.021625
-0.022655
-0.020048
-0.020818
-0.020289
-0.019500
-0.020010
-0.020520
-0.018173
-0.019202
-0.021011
-0.018145
-0.021512
-0.022022
-0.018896
-0.020445
-0.021474
-0.020945
-0.020416
-0.019628
-0.017800
-0.019089
-0.018820
-0.017512
-0.017762
-0.017753
-0.020081
-0.019293
-0.018244
-0.020573
-0.020044
-0.020554
-0.021324
-0.019236
-0.018188
-0.020256
-0.020766
-0.019198
-0.020488
-0.020738
-0.017612
-0.018122
-0.020710
-0.020181
-0.019912
-0.019643
-0.018334
-0.019624
-0.020653
-0.020644
-0.021933
-0.020625
-0.020096
-0.021645
-0.020857
-0.019808
-0.020578
-0.019789
-0.020559
-0.021589
-0.020281
-0.019752
-0.019482
-0.019733
-0.019204
-0.019194
-0.021003
-0.019176
-0.017348
-0.018118
-0.019407
-0.019917
-0.021466
-0.020937
-0.020408
-0.021178
-0.019870
-0.019341
-0.018552
-0.018283
-0.019573
-0.020343
-0.019034
-0.019285
-0.020834
-0.018746
-0.019256
-0.020806
-0.019238
-0.017669
-0.018699
-0.018949
-0.017901
-0.018151
-0.017103
-0.018912
-0.021240
-0.020192
-0.021221
-0.019913
-0.019644
-0.020674
-0.020924
-0.020655
-0.018567
-0.017259
-0.017250
-0.018279
-0.018270
-0.018001
-0.020329
-0.020060
-0.019791
-0.019781
-0.018733
-0.020022
-0.019753
-0.018185
-0.018176
-0.019205
-0.018676
-0.018407
-0.019956
-0.018128
-0.018379
-0.019928
-0.019399
-0.020688
-0.018861
-0.017293
-0.019102
-0.018313
-0.017005
-0.018034
-0.018544
-0.018535
-0.019045
-0.019036
-0.019546
-0.020575
-0.018748
-0.017180
-0.018209
-0.017940
-0.018710
-0.019999
-0.017392
-0.017383
-0.018932
-0.018403
-0.017614
-0.017865
-0.020193
-0.019924
-0.019655
-0.018866
-0.016259
-0.017289
-0.018318
-0.019867
-0.017780
-0.016731
-0.019839
-0.020349
-0.020859
-0.020071
-0.018503
-0.017974
-0.016925
-0.018994
-0.020283
-0.017936
-0.017147
-0.019216
-0.019466
-0.019457
-0.018409
-0.016581
-0.018649
-0.019160
-0.017851
-0.018881
-0.017313
-0.017563
-0.019632
-0.017804
-0.017795
-0.019084
-0.019335
-0.020884
-0.020874
-0.019306
-0.017998
-0.017209
-0.015641
-0.015892
-0.016921
-0.016133
-0.017941
-0.018971
-0.018702
-0.018952
-0.021541
-0.020752
-0.019703
-0.021253
-0.017606
-0.018116
-0.019666
-0.018098
-0.019127
-0.018079
-0.017290
-0.017800
-0.018051
-0.018041
-0.019071
-0.018282
-0.016454
-0.019302
-0.019293
-0.019283
-0.019534
-0.017186
-0.018216
-0.020545
-0.020016
-0.018967
-0.017919
-0.016610
-0.015562
-0.016332
-0.018141
-0.018651
-0.018382
-0.019671
-0.019662
-0.017834
-0.017565
-0.018594
-0.018585
-0.017796
-0.018047
-0.018037
-0.016469
-0.018018
-0.019308
-0.016960
-0.019029
-0.017721
-0.017971
-0.020819
-0.016913
-0.018462
-0.020012
-0.017664
-0.017655
-0.017386
-0.017896
-0.017627
-0.019436
-0.018387
-0.017598
-0.019148
-0.018099
-0.019648
-0.018859
-0.017551
-0.018321
-0.016753
-0.018562
-0.019332
-0.017504
-0.018534
-0.017745
-0.016437
-0.018246
-0.017457
-0.017707
-0.018737
-0.018728
-0.020537
-0.017929
-0.016621
-0.017651
-0.015304
-0.016333
-0.018402
-0.017094
-0.017344
-0.019932
-0.019663
-0.018355
-0.018865
-0.018855
-0.019885
-0.018837
-0.017269
-0.016480
-0.015951
-0.018279
-0.018010
-0.016962
-0.017212
-0.016423
-0.017713
-0.016405
-0.015876
-0.016645
-0.017675
-0.018965
-0.018176
-0.018426
-0.017637
-0.017108
-0.017099
-0.015791
-0.016301
-0.017071
-0.015503
-0.016273
-0.018861
-0.018332
-0.018063
-0.018053
-0.017265
-0.016216
-0.016726
-0.016457
-0.015928
-0.018257
-0.017468
-0.017199
-0.018748
-0.018738
-0.017170
-0.015862
-0.017411
-0.017142
-0.017652
-0.019201
-0.017374
-0.015546
-0.015536
-0.017605
-0.017076
-0.016807
-0.017577
-0.015230
-0.015220
-0.017549
-0.018578
-0.016750
-0.017001
-0.016991
-0.016462
-0.018531
-0.017483
-0.017214
-0.016944
-0.016156
-0.017965
-0.016656
-0.016647
-0.016897
-0.015329
-0.016619
-0.016090
-0.014522
-0.016850
-0.017620
-0.016572
-0.017082
-0.017592
-0.016803
-0.016274
-0.017044
-0.017294
-0.016765
-0.016496
-0.015448
-0.015698
-0.015948
-0.015419
-0.017228
-0.016959
-0.015391
-0.015641
-0.015372
-0.016921
-0.016912
-0.016643
-0.016893
-0.017403
-0.019212
-0.018424
-0.015816
-0.014248
-0.013979
-0.015788
-0.015779
-0.015769
-0.016799
-0.014452
-0.014442
-0.016771
-0.015722
-0.016752
-0.017782
-0.015954
-0.016204
-0.016195
-0.015146
-0.016436
-0.015387
-0.014858
-0.016667
-0.016917
-0.015869
-0.015860
-0.015331
-0.015061
-0.018169
-0.017380
-0.016332
-0.017102
-0.015274
-0.015265
-0.016035
-0.016285
-0.015756
-0.016786
-0.017815
-0.016507
-0.015718
-0.014150
-0.015959
-0.017249
-0.014641
-0.014372
-0.012545
-0.012535
-0.017201
-0.019270
-0.016663
-0.016134
-0.015865
-0.016115
-0.017665
-0.015837
-0.016347
-0.016597
-0.014250
-0.015279
-0.015790
-0.015520
-0.015251
-0.014722
-0.015232
-0.015223
-0.014694
-0.015983
-0.015454
-0.014406
-0.017254
-0.017504
-0.017495
-0.018265
-0.015917
-0.015129
-0.014600
-0.014850
-0.016919
-0.016909
-0.015082
-0.014293
-0.015063
-0.014274
-0.014524
-0.016853
-0.016324
-0.014496
-0.016045
-0.017075
-0.015767
-0.016017
-0.015748
-0.015998
-0.017807
-0.019097
-0.017529
-0.014922
-0.016471
-0.015942
-0.014633
-0.015403
-0.014095
-0.014345
-0.013557
-0.014846
-0.016655
-0.015347
-0.016117
-0.016367
-0.018176
-0.016868
-0.013741
-0.016070
-0.015021
-0.015012
-0.016561
-0.015512
-0.017062
-0.016792
-0.017303
-0.017033
-0.013387
-0.013378
-0.013888
-0.015437
-0.016467
-0.015418
-0.014110
-0.013061
-0.013831
-0.015900
-0.016930
-0.016141
-0.014833
-0.014304
-0.013255
-0.016623
-0.017133
-0.012967
-0.014257
-0.014507
-0.015277
-0.017605
-0.014219
-0.013170
-0.015239
-0.016269
-0.016000
-0.015471
-0.014422
-0.014673
-0.017261
-0.017251
-0.016203
-0.015934
-0.016704
-0.016694
-0.015126
-0.013039
-0.011730
-0.012760
-0.014829
-0.017157
-0.016368
-0.015060
-0.017389
-0.019457
-0.021786
-0.024634
-0.023066
-0.023576
-0.026944
-0.028233
-0.030302
-0.030552
-0.030023
-0.033391
-0.035979
-0.038307
-0.037519
-0.035691
-0.037500
-0.036971
-0.033325
-0.031497
-0.032786
-0.036414
-0.036664
-0.032239
-0.031969
-0.034298
-0.036626
-0.037656
-0.034789
-0.043352
-0.054253
-0.057880
-0.064625
-0.073707
-0.093960
-0.110835
-0.129789
-0.172901
-0.217312
-0.249514
-0.261973
-0.283784
-0.325857
-0.337277
-0.355452
-0.409474
-0.408166
-0.311783
-0.232804
-0.238249
-0.215380
-0.133804
-0.005729
0.080264
0.003901
0.010665
0.198486
0.333315
0.255394
0.200333
0.399065
0.428168
0.358820
0.474686
0.505348
0.614460
0.664864
0.446928
0.500190
0.578390
0.196800
-0.096988
0.103302
0.070581
-0.489729
-0.697794
-0.844034
-1.135484
-1.232887
-1.462513
-1.324307
-0.942958
-1.065040
-1.465333
-1.352844
-1.110211
-1.513102
-1.453346
-0.706503
-0.242029
-0.547766
-1.133274
-0.880770
-0.746720
-1.716165
-1.703686
-0.019861
0.818419
0.266682
-0.337789
-0.618848
-1.040442
-1.190839
-0.474909
-0.308388
-0.927146
-1.372119
-2.078419
-3.315943
-4.059130
-3.127593
-1.402724
-0.270387
-0.345970
-1.934441
-2.603074
-1.135376
-0.144872
-0.094987
-1.215616
-3.591184
-5.237584
-5.816857
-5.298091
-4.047819
-1.004368
2.662525
3.311435
4.042431
6.003688
6.029934
4.839168
4.889832
6.145559
6.414169
6.693429
8.273866
7.960855
6.346927
6.298359
4.843928
2.178979
-3.416673
-16.446363
-29.754004
-35.173013
-30.961387
-20.784449
-9.939129
-0.102228
7.163750
11.719569
13.111415
11.239537
9.835761
11.595178
13.627352
14.861259
16.378833
14.352912
9.894525
5.133248
-0.065478
-0.485514
1.024527
-4.262261
-13.715985
-20.800886
-24.350086
-22.429352
-13.043668
-2.119638
1.916126
2.690763
5.131292
7.063196
10.589555
11.555121
6.114811
1.040514
-1.431428
-2.408406
-4.554859
-7.610500
-7.402156
-6.808317
-5.982246
-0.069139
4.009227
-0.502933
-6.112352
-7.440796
-3.336973
6.353419
14.156597
15.130217
12.513844
8.271843
3.565897
0.148919
-2.745665
-6.671269
-10.412437
-6.932836
1.510410
5.376545
4.510488
-1.118154
-5.614987
-1.095795
7.390313
11.966914
10.344153
7.143562
3.487598
-0.943774
-0.568660
0.494060
-5.084446
-11.222233
-11.574209
-9.015226
-9.009762
-12.777166
-17.653001
-21.993194
-20.041808
-11.797284
-8.967623
-9.838615
-10.185916
-13.347541
-13.656656
-12.562764
-11.171957
-9.773097
-7.730273
2.628762
10.651444
14.006876
5.088013
-13.785156
-15.511824
0.990462
17.231162
8.390490
6.899172
9.475559
-22.503421
-34.198424
-20.717758
-8.288633
4.013206
0.220344
-14.533685
-27.254511
-32.464147
-39.060165
-37.169564
-27.530347
-24.020613
-7.186343
10.452428
8.190378
-9.946868
-27.234674
-8.566443
23.936249
29.606212
28.060603
15.938542
-15.918607
-24.599003
2.616632
26.901565
33.233418
24.571986
-13.892361
-56.226990
-71.744737
-63.431115
-27.719510
10.286105
25.123019
20.334727
-1.798011
-13.734337
11.326523
41.606640
63.376240
65.810275
23.771782
-14.083149
-15.306127
-0.012801
16.631838
33.682755
30.226811
-13.192348
-49.914172
-48.904185
-27.117699
-13.108665
-4.807252
5.035883
-14.337859
-30.788952
-13.776741
-0.147748
17.107605
41.450207
50.683927
49.498875
39.670046
22.004278
-2.482736
-27.735286
-47.693246
-62.510659
-62.531691
-48.218469
-24.720632
5.493764
31.453161
45.950299
50.241414
40.752881
18.120091
2.650660
-2.413246
-4.270318
-1.295706
1.797620
-3.987662
-28.807958
-61.831206
-87.615500
-62.478009
5.992409
19.641924
-4.837297
-11.555665
-26.502183
-54.192135
-61.444586
-41.888728
-26.607611
-13.150324
17.901564
54.546774
72.446093
78.811195
56.690148
-24.398998
-96.804361
-118.642782
-104.838705
-68.802910
-36.648567
-12.080746
-26.537861
-72.246356
-84.743261
-72.895756
-56.952751
-31.248965
-17.722840
-36.633156
-72.295905
-90.841767
-92.547134
-102.570530
-103.668040
-72.392752
-27.617065
15.895111
37.321038
34.407491
25.648905
-11.521797
-56.737772
-71.175923
-51.558240
4.235763
60.814785
88.183683
79.837349
46.044149
10.315938
-28.835495
-55.701204
-65.516265
-69.697740
-55.843788
-50.946634
-72.697772
-92.748209
-99.642700
-90.241430
-62.447551
-21.495648
27.063818
59.079185
58.263263
49.843675
49.914341
29.113174
-27.468426
-90.849193
-149.280601
-148.862625
-96.360920
-74.616777
-46.227251
-19.263071
-31.697892
-48.846462
-50.644047
-28.555452
-6.492054
-11.385033
-24.184308
-22.221493
-23.605786
-21.441391
-2.409744
16.164711
17.191323
-5.077792
-44.417816
-112.941468
-156.421414
-107.753104
-20.379634
31.459922
55.932407
73.984469
75.592961
84.455733
107.398445
137.946123
170.990431
173.324715
147.603284
95.469949
20.087905
-53.225347
-106.635701
-113.755411
-91.078701
-49.597131
23.040744
67.933846
64.837681
51.424054
17.407974
-27.439910
-37.713722
-10.703563
28.880142
76.756159
125.283674
153.526431
168.300222
178.890190
169.153578
143.220696
117.089092
92.006170
67.045080
42.136982
29.139244
41.975945
80.620589
121.763162
135.530092
119.917270
89.772770
65.439279
59.772451
71.542286
83.187172
83.506176
95.149763
121.782479
139.797134
140.408637
142.248323
159.257416
173.432182
172.753938
164.741405
159.865831
156.366766
156.613815
165.048748
180.202320
199.075508
199.069543
181.045555
156.871821
135.407467
137.649013
158.504231
182.676425
195.344277
199.059487
216.801646
247.126703
290.630306
351.700196
408.880580
466.390610
523.334086
547.631228
548.638618
531.601488
512.491151
506.082426
492.443061
493.188604
509.532172
545.060640
545.222745
538.575034
582.120200
459.870827
202.097671
88.719632
44.080082
-142.457176
-284.854928
-279.159247
-324.133378
-356.932965
-333.432531
-320.820529
-304.583206
-307.483766
-323.423376
-342.863618
-372.465463
-357.955077
-298.921768
-283.948995
-315.331808
-339.965851
-333.024842
-286.715486
-247.829777
-212.734082
-97.849630
58.879538
154.212816
177.598952
161.468413
81.925926
-54.647570
-140.414876
-177.924576
-216.800135
-257.406008
-297.317262
-308.236337
-315.859218
-312.686663
-349.371599
-385.676754
-306.462855
-178.939655
-18.613221
69.775942
106.238016
222.557166
287.705672
249.465505
169.913926
92.772993
165.261761
66.405009
-163.486736
-52.769742
-138.134407
-239.583903
-102.171338
-180.535258
-274.045986
-225.784733
-150.431245
-206.962710
-271.777395
-261.017539
-194.691765
-222.346389
-263.334640
-147.173689
-135.204613
-163.891035
-289.971725
-392.228839
-363.586039
-410.795733
-309.244389
-198.955752
-288.641657
-267.571611
-251.154009
-311.574201
-253.070818
-280.408265
-288.128299
-190.370346
-151.357091
-125.784488
-100.782076
17.345838
115.314202
82.235364
97.867428
118.797459
53.483759
-9.099000
-40.973294
-73.271270
-85.554127
-61.926146
-27.084245
4.485101
12.799502
1.473890
-5.193304
6.863054
27.205230
30.397527
52.485083
56.695152
34.821403
46.247045
40.469816
10.229981
-11.012791
1.743902
-9.968505
-90.144307
-138.223183
-154.105904
-147.702356
-121.664768
-126.748417
-93.478891
-24.081881
7.898937
47.714096
87.469248
95.506737
100.069570
88.966319
49.696432
-0.585277
-25.508961
-61.596950
-139.311451
-191.448163
-212.005407
-233.840191
-265.494721
-278.262565
-255.852377
-232.903949
-212.276808
-193.117616
-165.640914
-106.567081
-30.949408
40.435346
106.130923
172.388638
230.231950
245.467868
228.363718
207.861284
150.837039
92.893995
68.998732
47.128361
25.912604
-13.046860
-37.179291
-35.911354
-41.641305
-45.652892
-41.837152
-13.711809
20.380142
40.826225
32.359359
21.037643
46.454385
74.112405
107.305300
127.384591
123.292995
125.298413
105.917138
57.447570
9.209455
-31.986351
-61.471040
-58.375636
-53.439516
-45.845971
-16.285411
2.289044
15.277969
18.726658
17.448869
32.210970
62.202485
100.818035
139.545285
163.423682
166.087871
172.147487
159.736304
121.882153
91.585429
80.728179
88.850611
100.191049
102.688727
88.764916
59.936921
30.004652
0.712191
-47.390585
-10.817849
89.292042
99.821744
93.987626
101.029944
106.768226
90.362073
66.184183
69.302966
57.728496
62.597596
37.329460
-4.460955
-47.889467
-98.777734
-130.837243
-155.949778
-129.691647
-110.544144
-103.683144
-111.411490
-121.262920
-74.991489
-41.621173
-26.771011
3.456893
48.963307
81.957740
113.848158
133.065279
113.502426
108.580093
120.306806
131.689586
125.462698
98.212013
77.223294
58.721073
33.261488
25.461966
37.366620
51.150175
71.097244
76.061418
67.657156
54.721242
35.734814
28.836686
31.458014
33.032737
29.676804
26.122409
5.582049
-38.088826
-81.573967
-120.091046
-142.450561
-132.628207
-103.743303
-83.807924
-71.873916
-68.227285
-77.239404
-81.692076
-70.367744
-35.863281
9.582347
54.042676
81.963581
81.989048
83.031765
93.975797
116.030883
155.957222
197.280593
237.761017
273.968000
274.509365
246.281693
233.093545
228.680617
208.014789
179.509685
139.688311
85.359418
34.530118
-2.882428
-14.963186
-13.574717
-18.928005
-16.524363
-13.138798
-23.693938
-35.538827
-42.524756
-43.601225
-36.921024
-28.222425
-35.756985
-58.693444
-80.972690
-103.870963
-114.779648
-107.146618
-80.960184
-39.939182
-7.998888
11.866353
29.815807
42.127517
34.448267
12.906762
-17.837282
-56.064461
-86.094402
-118.298602
-153.037876
-181.862495
-185.160239
-127.223670
-40.032557
26.296594
70.018921
81.376244
64.331841
41.682685
9.909960
-12.934281
-0.016013
33.136358
64.115251
77.429666
82.172777
91.562878
68.652655
36.657049
17.765437
-29.243196
-59.372370
-64.019608
-85.898552
-117.772587
-156.569956
-181.265303
-186.049959
-193.516199
-201.677059
-195.586531
-175.887021
-155.764869
-149.428081
-150.013588
-138.484039
-126.769535
-115.320255
-100.931181
-93.159175
-79.259503
-58.763025
-38.649186
-18.156345
4.367362
34.914521
69.468080
98.501831
123.810509
141.169770
146.142777
143.416522
139.604177
144.565754
148.086658
152.431545
156.052460
140.541986
110.239808
69.447161
29.249383
-4.676038
-24.613996
-15.695634
10.932406
39.330504
65.701374
89.136606
102.059810
103.496076
100.598375
102.150757
115.417114
128.707370
127.196310
94.961977
35.198739
-10.830829
-36.505761
-52.940749
-55.083305
-51.077934
-37.857815
-27.873886
-38.236279
-46.174517
-38.978417
-32.821907
-20.259521
12.623211
42.198837
59.122207
60.174017
36.588918
5.858122
-23.135606
-50.047034
-61.956864
-54.280193
-43.180820
-28.740831
-7.537784
7.400439
22.359704
33.950818
35.425790
33.246087
16.738624
-7.786056
-22.944285
-30.567684
-31.346979
-25.845345
-28.134930
-43.174963
-74.984835
-115.547327
-131.906203
-140.587118
-121.720684
-63.192883
-32.996151
-9.712363
10.214184
-0.005597
1.822659
17.208463
41.627956
85.592128
123.007810
138.778590
149.212957
150.142936
126.377817
94.379354
79.506611
84.545339
92.030821
92.979243
93.045753
86.226594
55.317858
14.815632
-7.745203
-23.915747
-43.673945
-59.515623
-72.116436
-85.342770
-105.393467
-129.669809
-141.255969
-125.264386
-94.382647
-69.708062
-44.546931
-14.161088
10.135015
21.666122
25.210665
23.433342
14.634233
10.678756
4.562790
-10.798317
-16.938962
-18.616014
-24.946809
-28.497567
-24.619482
-17.575866
-8.295128
3.286894
9.315338
14.896461
21.705767
24.259555
